[{"OBJECT_NAME":"STARLINK-6034","OBJECT_ID":"2023-058H","EPOCH":"2026-03-09T21:38:58.308864","MEAN_MOTION":15.05652451,"ECCENTRICITY":0.00017412,"INCLINATION":97.6039,"RA_OF_ASC_NODE":71.5027,"ARG_OF_PERICENTER":85.5246,"MEAN_ANOMALY":274.618,"EPHEMERIS_TYPE":0,"CLASSIFICATION_TYPE":"U","NORAD_CAT_ID":56324,"ELEMENT_SET_NO":999,"REV_AT_EPOCH":15788,"BSTAR":1.406853e-5,"MEAN_MOTION_DOT":1.42e-6,"MEAN_MOTION_DDOT":0},{"OBJECT_NAME":"KUIPER-00203","OBJECT_ID":"2026-030K","EPOCH":"2026-03-09T22:00:01.999584","MEAN_MOTION":15.12119903,"ECCENTRICITY":0.00114753,"INCLINATION":51.8873,"RA_OF_ASC_NODE":219.0557,"ARG_OF_PERICENTER":61.3884,"MEAN_ANOMALY":261.5536,"EPHEMERIS_TYPE":0,"CLASSIFICATION_TYPE":"U","NORAD_CAT_ID":67773,"ELEMENT_SET_NO":999,"REV_AT_EPOCH":368,"BSTAR":-0.068919543,"MEAN_MOTION_DOT":-0.01112832,"MEAN_MOTION_DDOT":0}]
